<?xml version="1.0" encoding="UTF-8"?>
<ndm xmlns:xsi="http://www.w3.org/2001/XMLSchema-instance" xsi:noNamespaceSchemaLocation="https://sanaregistry.org/r/ndmxml_unqualified/ndmxml-2.0.0-master-2.0.xsd">
<omm id="CCSDS_OMM_VERS" version="2.0">
<header><CREATION_DATE/><ORIGINATOR/></header><body><segment><metadata><OBJECT_NAME>KUIPER-00095</OBJECT_NAME><OBJECT_ID>2025-171C</OBJECT_ID><CENTER_NAME>EARTH</CENTER_NAME><REF_FRAME>TEME</REF_FRAME><TIME_SYSTEM>UTC</TIME_SYSTEM><MEAN_ELEMENT_THEORY>SGP4</MEAN_ELEMENT_THEORY></metadata><data><meanElements><EPOCH>2025-10-09T06:46:02.826624</EPOCH><MEAN_MOTION>15.36868584</MEAN_MOTION><ECCENTRICITY>.00040279</ECCENTRICITY><INCLINATION>51.8756</INCLINATION><RA_OF_ASC_NODE>121.2606</RA_OF_ASC_NODE><ARG_OF_PERICENTER>359.0137</ARG_OF_PERICENTER><MEAN_ANOMALY>1.0841</MEAN_ANOMALY></meanElements><tleParameters><EPHEMERIS_TYPE>0</EPHEMERIS_TYPE><CLASSIFICATION_TYPE>U</CLASSIFICATION_TYPE><NORAD_CAT_ID>65134</NORAD_CAT_ID><ELEMENT_SET_NO>999</ELEMENT_SET_NO><REV_AT_EPOCH>1028</REV_AT_EPOCH><BSTAR>.17878039E-2</BSTAR><MEAN_MOTION_DOT>.65632E-3</MEAN_MOTION_DOT><MEAN_MOTION_DDOT>0</MEAN_MOTION_DDOT></tleParameters></data></segment></body></omm>
<omm id="CCSDS_OMM_VERS" version="2.0">
<header><CREATION_DATE/><ORIGINATOR/></header><body><segment><metadata><OBJECT_NAME>KUIPER-00096</OBJECT_NAME><OBJECT_ID>2025-171D</OBJECT_ID><CENTER_NAME>EARTH</CENTER_NAME><REF_FRAME>TEME</REF_FRAME><TIME_SYSTEM>UTC</TIME_SYSTEM><MEAN_ELEMENT_THEORY>SGP4</MEAN_ELEMENT_THEORY></metadata><data><meanElements><EPOCH>2025-10-08T07:04:16.878720</EPOCH><MEAN_MOTION>15.37381275</MEAN_MOTION><ECCENTRICITY>.00040873</ECCENTRICITY><INCLINATION>51.8715</INCLINATION><RA_OF_ASC_NODE>125.8943</RA_OF_ASC_NODE><ARG_OF_PERICENTER>348.6483</ARG_OF_PERICENTER><MEAN_ANOMALY>11.4411</MEAN_ANOMALY></meanElements><tleParameters><EPHEMERIS_TYPE>0</EPHEMERIS_TYPE><CLASSIFICATION_TYPE>U</CLASSIFICATION_TYPE><NORAD_CAT_ID>65135</NORAD_CAT_ID><ELEMENT_SET_NO>999</ELEMENT_SET_NO><REV_AT_EPOCH>1013</REV_AT_EPOCH><BSTAR>.10450346E-2</BSTAR><MEAN_MOTION_DOT>.38707E-3</MEAN_MOTION_DOT><MEAN_MOTION_DDOT>0</MEAN_MOTION_DDOT></tleParameters></data></segment></body></omm>
<omm id="CCSDS_OMM_VERS" version="2.0">
<header><CREATION_DATE/><ORIGINATOR/></header><body><segment><metadata><OBJECT_NAME>KUIPER-00097</OBJECT_NAME><OBJECT_ID>2025-171E</OBJECT_ID><CENTER_NAME>EARTH</CENTER_NAME><REF_FRAME>TEME</REF_FRAME><TIME_SYSTEM>UTC</TIME_SYSTEM><MEAN_ELEMENT_THEORY>SGP4</MEAN_ELEMENT_THEORY></metadata><data><meanElements><EPOCH>2025-10-09T06:48:11.301696</EPOCH><MEAN_MOTION>15.34958800</MEAN_MOTION><ECCENTRICITY>.00056757</ECCENTRICITY><INCLINATION>51.8745</INCLINATION><RA_OF_ASC_NODE>121.2668</RA_OF_ASC_NODE><ARG_OF_PERICENTER>359.2576</ARG_OF_PERICENTER><MEAN_ANOMALY>0.8400</MEAN_ANOMALY></meanElements><tleParameters><EPHEMERIS_TYPE>0</EPHEMERIS_TYPE><CLASSIFICATION_TYPE>U</CLASSIFICATION_TYPE><NORAD_CAT_ID>65136</NORAD_CAT_ID><ELEMENT_SET_NO>999</ELEMENT_SET_NO><REV_AT_EPOCH>1027</REV_AT_EPOCH><BSTAR>-.15295476E-3</BSTAR><MEAN_MOTION_DOT>-.5648E-4</MEAN_MOTION_DOT><MEAN_MOTION_DDOT>0</MEAN_MOTION_DDOT></tleParameters></data></segment></body></omm>
<omm id="CCSDS_OMM_VERS" version="2.0">
<header><CREATION_DATE/><ORIGINATOR/></header><body><segment><metadata><OBJECT_NAME>KUIPER-00098</OBJECT_NAME><OBJECT_ID>2025-171F</OBJECT_ID><CENTER_NAME>EARTH</CENTER_NAME><REF_FRAME>TEME</REF_FRAME><TIME_SYSTEM>UTC</TIME_SYSTEM><MEAN_ELEMENT_THEORY>SGP4</MEAN_ELEMENT_THEORY></metadata><data><meanElements><EPOCH>2025-10-09T06:31:35.717088</EPOCH><MEAN_MOTION>15.30913952</MEAN_MOTION><ECCENTRICITY>.0007519</ECCENTRICITY><INCLINATION>51.8767</INCLINATION><RA_OF_ASC_NODE>121.2046</RA_OF_ASC_NODE><ARG_OF_PERICENTER>351.5872</ARG_OF_PERICENTER><MEAN_ANOMALY>8.4984</MEAN_ANOMALY></meanElements><tleParameters><EPHEMERIS_TYPE>0</EPHEMERIS_TYPE><CLASSIFICATION_TYPE>U</CLASSIFICATION_TYPE><NORAD_CAT_ID>65137</NORAD_CAT_ID><ELEMENT_SET_NO>999</ELEMENT_SET_NO><REV_AT_EPOCH>962</REV_AT_EPOCH><BSTAR>-.57656211E-3</BSTAR><MEAN_MOTION_DOT>-.17816E-3</MEAN_MOTION_DOT><MEAN_MOTION_DDOT>0</MEAN_MOTION_DDOT></tleParameters></data></segment></body></omm>
<omm id="CCSDS_OMM_VERS" version="2.0">
<header><CREATION_DATE/><ORIGINATOR/></header><body><segment><metadata><OBJECT_NAME>KUIPER-00099</OBJECT_NAME><OBJECT_ID>2025-171G</OBJECT_ID><CENTER_NAME>EARTH</CENTER_NAME><REF_FRAME>TEME</REF_FRAME><TIME_SYSTEM>UTC</TIME_SYSTEM><MEAN_ELEMENT_THEORY>SGP4</MEAN_ELEMENT_THEORY></metadata><data><meanElements><EPOCH>2025-10-09T06:16:33.079008</EPOCH><MEAN_MOTION>15.37574783</MEAN_MOTION><ECCENTRICITY>.00051842</ECCENTRICITY><INCLINATION>51.8743</INCLINATION><RA_OF_ASC_NODE>121.1372</RA_OF_ASC_NODE><ARG_OF_PERICENTER>333.3941</ARG_OF_PERICENTER><MEAN_ANOMALY>26.6779</MEAN_ANOMALY></meanElements><tleParameters><EPHEMERIS_TYPE>0</EPHEMERIS_TYPE><CLASSIFICATION_TYPE>U</CLASSIFICATION_TYPE><NORAD_CAT_ID>65138</NORAD_CAT_ID><ELEMENT_SET_NO>999</ELEMENT_SET_NO><REV_AT_EPOCH>1027</REV_AT_EPOCH><BSTAR>.15368425E-2</BSTAR><MEAN_MOTION_DOT>.57621E-3</MEAN_MOTION_DOT><MEAN_MOTION_DDOT>0</MEAN_MOTION_DDOT></tleParameters></data></segment></body></omm>
<omm id="CCSDS_OMM_VERS" version="2.0">
<header><CREATION_DATE/><ORIGINATOR/></header><body><segment><metadata><OBJECT_NAME>KUIPER-00100</OBJECT_NAME><OBJECT_ID>2025-171H</OBJECT_ID><CENTER_NAME>EARTH</CENTER_NAME><REF_FRAME>TEME</REF_FRAME><TIME_SYSTEM>UTC</TIME_SYSTEM><MEAN_ELEMENT_THEORY>SGP4</MEAN_ELEMENT_THEORY></metadata><data><meanElements><EPOCH>2025-10-08T07:04:12.588960</EPOCH><MEAN_MOTION>15.37307800</MEAN_MOTION><ECCENTRICITY>.00047569</ECCENTRICITY><INCLINATION>51.8756</INCLINATION><RA_OF_ASC_NODE>125.8943</RA_OF_ASC_NODE><ARG_OF_PERICENTER>330.5423</ARG_OF_PERICENTER><MEAN_ANOMALY>29.5295</MEAN_ANOMALY></meanElements><tleParameters><EPHEMERIS_TYPE>0</EPHEMERIS_TYPE><CLASSIFICATION_TYPE>U</CLASSIFICATION_TYPE><NORAD_CAT_ID>65139</NORAD_CAT_ID><ELEMENT_SET_NO>999</ELEMENT_SET_NO><REV_AT_EPOCH>1012</REV_AT_EPOCH><BSTAR>.12944233E-2</BSTAR><MEAN_MOTION_DOT>.47986E-3</MEAN_MOTION_DOT><MEAN_MOTION_DDOT>0</MEAN_MOTION_DDOT></tleParameters></data></segment></body></omm>
<omm id="CCSDS_OMM_VERS" version="2.0">
<header><CREATION_DATE/><ORIGINATOR/></header><body><segment><metadata><OBJECT_NAME>KUIPER-00102</OBJECT_NAME><OBJECT_ID>2025-171J</OBJECT_ID><CENTER_NAME>EARTH</CENTER_NAME><REF_FRAME>TEME</REF_FRAME><TIME_SYSTEM>UTC</TIME_SYSTEM><MEAN_ELEMENT_THEORY>SGP4</MEAN_ELEMENT_THEORY></metadata><data><meanElements><EPOCH>2025-10-09T06:46:54.678720</EPOCH><MEAN_MOTION>15.36951525</MEAN_MOTION><ECCENTRICITY>.00040141</ECCENTRICITY><INCLINATION>51.8737</INCLINATION><RA_OF_ASC_NODE>121.2606</RA_OF_ASC_NODE><ARG_OF_PERICENTER>357.6506</ARG_OF_PERICENTER><MEAN_ANOMALY>2.4461</MEAN_ANOMALY></meanElements><tleParameters><EPHEMERIS_TYPE>0</EPHEMERIS_TYPE><CLASSIFICATION_TYPE>U</CLASSIFICATION_TYPE><NORAD_CAT_ID>65140</NORAD_CAT_ID><ELEMENT_SET_NO>999</ELEMENT_SET_NO><REV_AT_EPOCH>1027</REV_AT_EPOCH><BSTAR>.10053973E-2</BSTAR><MEAN_MOTION_DOT>.36696E-3</MEAN_MOTION_DOT><MEAN_MOTION_DDOT>0</MEAN_MOTION_DDOT></tleParameters></data></segment></body></omm>
<omm id="CCSDS_OMM_VERS" version="2.0">
<header><CREATION_DATE/><ORIGINATOR/></header><body><segment><metadata><OBJECT_NAME>KUIPER-00103</OBJECT_NAME><OBJECT_ID>2025-171K</OBJECT_ID><CENTER_NAME>EARTH</CENTER_NAME><REF_FRAME>TEME</REF_FRAME><TIME_SYSTEM>UTC</TIME_SYSTEM><MEAN_ELEMENT_THEORY>SGP4</MEAN_ELEMENT_THEORY></metadata><data><meanElements><EPOCH>2025-10-08T14:04:38.064288</EPOCH><MEAN_MOTION>15.14848746</MEAN_MOTION><ECCENTRICITY>.0004248</ECCENTRICITY><INCLINATION>51.8857</INCLINATION><RA_OF_ASC_NODE>126.3298</RA_OF_ASC_NODE><ARG_OF_PERICENTER>333.3682</ARG_OF_PERICENTER><MEAN_ANOMALY>26.7076</MEAN_ANOMALY></meanElements><tleParameters><EPHEMERIS_TYPE>0</EPHEMERIS_TYPE><CLASSIFICATION_TYPE>U</CLASSIFICATION_TYPE><NORAD_CAT_ID>65141</NORAD_CAT_ID><ELEMENT_SET_NO>999</ELEMENT_SET_NO><REV_AT_EPOCH>1014</REV_AT_EPOCH><BSTAR>-.62878E-3</BSTAR><MEAN_MOTION_DOT>-.12129E-3</MEAN_MOTION_DOT><MEAN_MOTION_DDOT>0</MEAN_MOTION_DDOT></tleParameters></data></segment></body></omm>

</ndm>
