KUIPER-00095            
1 65134U 25171C   25282.28197716  .00065632  00000+0  17878-2 0  9999
2 65134  51.8756 121.2606 0004027 359.0137   1.0841 15.36868584 10281
KUIPER-00096            
1 65135U 25171D   25281.29463980  .00038707  00000+0  10450-2 0  9991
2 65135  51.8715 125.8943 0004087 348.6483  11.4411 15.37381275 10135
KUIPER-00097            
1 65136U 25171E   25282.28346414 -.00005648  00000+0 -15295-3 0  9997
2 65136  51.8745 121.2668 0005675 359.2576   0.8400 15.34958800 10274
KUIPER-00098            
1 65137U 25171F   25282.27194117 -.00017816  00000+0 -57656-3 0  9995
2 65137  51.8767 121.2046 0007519 351.5872   8.4984 15.30913952  9625
KUIPER-00099            
1 65138U 25171G   25282.26149397  .00057621  00000+0  15368-2 0  9994
2 65138  51.8743 121.1372 0005184 333.3941  26.6779 15.37574783 10271
KUIPER-00100            
1 65139U 25171H   25281.29459015  .00047986  00000+0  12944-2 0  9998
2 65139  51.8756 125.8943 0004756 330.5423  29.5295 15.37307800 10122
KUIPER-00102            
1 65140U 25171J   25282.28257730  .00036696  00000+0  10054-2 0  9996
2 65140  51.8737 121.2606 0004014 357.6506   2.4461 15.36951525 10277
KUIPER-00103            
1 65141U 25171K   25281.58655167 -.00012129  00000+0 -62878-3 0  9994
2 65141  51.8857 126.3298 0004248 333.3682  26.7076 15.14848746 10142
